GAOFEN-11 01            
1 43585U 18063A   26183.29110487  .00020551  00000+0  29955-3 0  9990
2 43585  97.1282 250.1315 0002081 269.5596  90.5421 15.55729889442691
ICESAT-2                
1 43613U 18070A   26183.28061912  .00010933  00000+0  39651-3 0  9994
2 43613  92.0094 295.0572 0006143  85.7552 274.4400 15.28296948434768
HYSIS                   
1 43719U 18096A   26183.23444834  .00001301  00000+0  18473-3 0  9990
2 43719  97.9838 249.8642 0001880  90.6413 269.5013 14.78648240409648
KAZSTSAT                
1 43783U 18099AB  26183.04129104  .00002032  00000+0  16814-3 0  9992
2 43783  97.4300 214.2972 0008331  27.8012 332.3656 14.99920117413539
SAUDISAT 5A             
1 43831U 18102A   26183.29119145  .00006343  00000+0  23303-3 0  9992
2 43831  97.3057 244.5818 0011216  83.4733 276.7783 15.28205519417980
SAUDISAT 5B             
1 43833U 18102C   26183.30753586  .00006269  00000+0  22855-3 0  9997
2 43833  97.3166 247.6949 0011947  85.2016 275.0588 15.28454611418106
GAOFEN-10R              
1 44622U 19066A   26183.26713104  .00001385  00000+0  17701-3 0  9999
2 44622  98.0503 136.9563 0007189  86.2318 273.9718 14.83034021364614
CARTOSAT-3              
1 44804U 19081A   26183.30597015  .00005165  00000+0  24774-3 0  9992
2 44804  97.4297 244.9292 0013367 100.8306 259.4434 15.19247466365763
GAOFEN-12 01            
1 44819U 19082A   26183.28693773  .00000485  00000+0  70089-4 0  9995
2 44819  97.8103 189.2678 0001654  55.2747 304.8621 14.80471195356326
CSG-1                   
1 44873U 19092A   26183.30871020  .00000516  00000+0  71433-4 0  9991
2 44873  97.8891   6.6923 0001411  91.1038 269.0337 14.82157521353710
NEMO-HD                 
1 46277U 20061F   26183.28791162  .00012166  00000+0  26065-3 0  9998
2 46277  97.1908 245.0906 0001499  73.7809 286.3605 15.44902500324318
SENTINEL-6A             
1 46984U 20086A   26183.15413938 -.00000048  00000+0  54852-4 0  9991
2 46984  66.0412 103.9669 0007838 270.0176  89.9941 12.80929970262248
CAS500-1                
1 47932U 21022A   26183.26850374  .00007621  00000+0  35534-3 0  9995
2 47932  97.3883  78.2157 0003567 223.4492 136.6462 15.20143482293059
GAOFEN-12 02            
1 48079U 21026A   26183.29961957  .00000449  00000+0  65850-4 0  9991
2 48079  97.9926 181.4186 0004881 168.2795 191.8531 14.80308152283991
PLEIADES NEO 3          
1 48268U 21034A   26183.31288950  .00000473  00000+0  66740-4 0  9994
2 48268  97.8940 257.8617 0001396  92.6051 267.5321 14.81674882279895
PLEIADES NEO 4          
1 49070U 21073E   26182.40118295  .00000739  00000+0  10048-3 0  9996
2 49070  97.8938 256.9596 0001357  89.2365 270.9003 14.81677791263471
LANDSAT 9               
1 49260U 21088A   26183.16657736  .00000404  00000+0  99710-4 0  9998
2 49260  98.2276 253.1624 0001186  87.7763 272.3572 14.57107719253183
CSG-2                   
1 51444U 22008A   26183.27494851  .00000638  00000+0  86643-4 0  9997
2 51444  97.8882   6.6532 0001575  86.4527 273.6866 14.82155495238829
GAOFEN-12 03            
1 52912U 22069A   26183.26457238  .00001262  00000+0  17335-3 0  9997
2 52912  97.8264  70.7541 0002461  85.6179 274.5314 14.80059464216848
SWOT                    
1 54754U 22173A   26183.20800918  .00000102  00000+0  71014-4 0  9997
2 54754  77.6102  15.0315 0000321  87.5523 272.5665 14.00171342181254
GAOFEN-12 04            
1 57654U 23123A   26183.28165924  .00001160  00000+0  16114-3 0  9998
2 57654  97.9113 101.0773 0003945  76.2562 283.9089 14.79755552154860
PARS 1                  
1 59065U 24039Q   26183.26726705  .00012535  00000+0  25782-3 0  9990
2 59065  97.4831 164.6651 0011116  67.2458 292.9964 15.46044149130979
RESURS-P 4              
1 59371U 24061A   26183.28427096  .00003471  00000+0  11405-3 0  9994
2 59371  97.2760 130.9209 0003041 108.4545 251.7027 15.32217071126076
LEGION 1                
1 59625U 24081A   26183.26904378  .00004143  00000+0  21436-3 0  9991
2 59625  97.5015 260.9656 0008105 322.9419  37.1254 15.16770058119827
LEGION 2                
1 59626U 24081B   26183.23326881  .00004749  00000+0  24524-3 0  9999
2 59626  97.5015 261.0273 0009876 285.2078  74.8063 15.16747300119823
ALOS-4 (DAICHI-4)       
1 60182U 24123A   26183.24064903  .00001574  00000+0  21761-3 0  9993
2 60182  97.9219 280.2007 0001615  97.5049 262.6346 14.79473604108106
LEGION 3                
1 60452U 24146A   26183.08847513  .00005063  00000+0  27555-3 0  9990
2 60452  45.0021 310.6368 0008871 266.8184  93.1679 15.15579705104282
LEGION 4                
1 60453U 24146B   26183.09125684  .00005045  00000+0  27014-3 0  9990
2 60453  45.0025  42.5272 0011984  31.0823 329.0762 15.16152311103131
SENTINEL-2C             
1 60989U 24157A   26182.92777018  .00000112  00000+0  59447-4 0  9997
2 60989  98.5690 257.5012 0000901  94.2219 265.9067 14.30821767 95097
IONOSFERA-M 1           
1 61735U 24199A   26183.24352702  .00000059  00000+0  45754-4 0  9994
2 61735  98.7153  56.2555 0002211  90.3499 269.7932 14.22757074129846
