OBJECT_NAME,OBJECT_ID,EPOCH,MEAN_MOTION,ECCENTRICITY,INCLINATION,RA_OF_ASC_NODE,ARG_OF_PERICENTER,MEAN_ANOMALY,EPHEMERIS_TYPE,CLASSIFICATION_TYPE,NORAD_CAT_ID,ELEMENT_SET_NO,REV_AT_EPOCH,BSTAR,MEAN_MOTION_DOT,MEAN_MOTION_DDOT
GAOFEN-11 01,2018-063A,2026-07-02T06:59:11.460768,15.55729889,.00020816,97.1282,250.1315,269.5596,90.5421,0,U,43585,999,44269,.29955084E-3,.20551E-3,0
ICESAT-2,2018-070A,2026-07-02T06:44:05.491968,15.28296948,.00061436,92.0094,295.0572,85.7552,274.4400,0,U,43613,999,43476,.39651142E-3,.10933E-3,0
HYSIS,2018-096A,2026-07-02T05:37:36.336576,14.78648240,.00018806,97.9838,249.8642,90.6413,269.5013,0,U,43719,999,40964,.18473266E-3,.1301E-4,0
KAZSTSAT,2018-099AB,2026-07-02T00:59:27.545856,14.99920117,.00083312,97.4300,214.2972,27.8012,332.3656,0,U,43783,999,41353,.16813636E-3,.2032E-4,0
SAUDISAT 5A,2018-102A,2026-07-02T06:59:18.941280,15.28205519,.00112166,97.3057,244.5818,83.4733,276.7783,0,U,43831,999,41798,.23302694E-3,.6343E-4,0
SAUDISAT 5B,2018-102C,2026-07-02T07:22:51.098304,15.28454611,.00119474,97.3166,247.6949,85.2016,275.0588,0,U,43833,999,41810,.22855387E-3,.6269E-4,0
GAOFEN-10R,2019-066A,2026-07-02T06:24:40.121856,14.83034021,.00071897,98.0503,136.9563,86.2318,273.9718,0,U,44622,999,36461,.17700957E-3,.1385E-4,0
CARTOSAT-3,2019-081A,2026-07-02T07:20:35.820960,15.19247466,.00133675,97.4297,244.9292,100.8306,259.4434,0,U,44804,999,36576,.2477357E-3,.5165E-4,0
GAOFEN-12 01,2019-082A,2026-07-02T06:53:11.419872,14.80471195,.00016545,97.8103,189.2678,55.2747,304.8621,0,U,44819,999,35632,.70088954E-4,.485E-5,0
CSG-1,2019-092A,2026-07-02T07:24:32.561280,14.82157521,.00014112,97.8891,6.6923,91.1038,269.0337,0,U,44873,999,35371,.71433485E-4,.516E-5,0
NEMO-HD,2020-061F,2026-07-02T06:54:35.563968,15.44902500,.0001499,97.1908,245.0906,73.7809,286.3605,0,U,46277,999,32431,.26065253E-3,.12166E-3,0
SENTINEL-6A,2020-086A,2026-07-02T03:41:57.642432,12.80929970,.0007838,66.0412,103.9669,270.0176,89.9941,0,U,46984,999,26224,.5485158E-4,-.48E-6,0
CAS500-1,2021-022A,2026-07-02T06:26:38.723136,15.20143482,.00035677,97.3883,78.2157,223.4492,136.6462,0,U,47932,999,29305,.35533523E-3,.7621E-4,0
GAOFEN-12 02,2021-026A,2026-07-02T07:11:27.130848,14.80308152,.00048819,97.9926,181.4186,168.2795,191.8531,0,U,48079,999,28399,.65849666E-4,.449E-5,0
PLEIADES NEO 3,2021-034A,2026-07-02T07:30:33.652800,14.81674882,.00013964,97.8940,257.8617,92.6051,267.5321,0,U,48268,999,27989,.6674025E-4,.473E-5,0
PLEIADES NEO 4,2021-073E,2026-07-01T09:37:42.206880,14.81677791,.00013574,97.8938,256.9596,89.2365,270.9003,0,U,49070,999,26347,.10047507E-3,.739E-5,0
LANDSAT 9,2021-088A,2026-07-02T03:59:52.283904,14.57107719,.00011862,98.2276,253.1624,87.7763,272.3572,0,U,49260,999,25318,.99710444E-4,.404E-5,0
CSG-2,2022-008A,2026-07-02T06:35:55.551264,14.82155495,.00015757,97.8882,6.6532,86.4527,273.6866,0,U,51444,999,23882,.86643346E-4,.638E-5,0
GAOFEN-12 03,2022-069A,2026-07-02T06:20:59.053632,14.80059464,.00024616,97.8264,70.7541,85.6179,274.5314,0,U,52912,999,21684,.17335324E-3,.1262E-4,0
SWOT,2022-173A,2026-07-02T04:59:31.993152,14.00171342,.00003211,77.6102,15.0315,87.5523,272.5665,0,U,54754,999,18125,.71013935E-4,.102E-5,0
GAOFEN-12 04,2023-123A,2026-07-02T06:45:35.358336,14.79755552,.00039456,97.9113,101.0773,76.2562,283.9089,0,U,57654,999,15486,.16113678E-3,.116E-4,0
PARS 1,2024-039Q,2026-07-02T06:24:51.873120,15.46044149,.00111169,97.4831,164.6651,67.2458,292.9964,0,U,59065,999,13097,.25782114E-3,.12535E-3,0
RESURS-P 4,2024-061A,2026-07-02T06:49:21.010944,15.32217071,.00030417,97.2760,130.9209,108.4545,251.7027,0,U,59371,999,12607,.11404991E-3,.3471E-4,0
LEGION 1,2024-081A,2026-07-02T06:27:25.382592,15.16770058,.00081057,97.5015,260.9656,322.9419,37.1254,0,U,59625,999,11982,.21435768E-3,.4143E-4,0
LEGION 2,2024-081B,2026-07-02T05:35:54.425184,15.16747300,.00098762,97.5015,261.0273,285.2078,74.8063,0,U,59626,999,11982,.24524133E-3,.4749E-4,0
ALOS-4 (DAICHI-4),2024-123A,2026-07-02T05:46:32.076192,14.79473604,.00016152,97.9219,280.2007,97.5049,262.6346,0,U,60182,999,10810,.21761489E-3,.1574E-4,0
LEGION 3,2024-146A,2026-07-02T02:07:24.251232,15.15579705,.0008871,45.0021,310.6368,266.8184,93.1679,0,U,60452,999,10428,.27555115E-3,.5063E-4,0
LEGION 4,2024-146B,2026-07-02T02:11:24.590976,15.16152311,.0011984,45.0025,42.5272,31.0823,329.0762,0,U,60453,999,10313,.27013518E-3,.5045E-4,0
SENTINEL-2C,2024-157A,2026-07-01T22:15:59.343552,14.30821767,.00009016,98.5690,257.5012,94.2219,265.9067,0,U,60989,999,9509,.59446747E-4,.112E-5,0
IONOSFERA-M 1,2024-199A,2026-07-02T05:50:40.734528,14.22757074,.00022118,98.7153,56.2555,90.3499,269.7932,0,U,61735,999,12984,.45754131E-4,.59E-6,0
